IRIDIUM 26              
1 24903U 97043A   25235.09621207  .00000288  00000+0  90188-4 0  9992
2 24903  86.3900  82.5001 0001996  92.6917 267.4509 14.37186223466355
IRIDIUM 22              
1 24907U 97043E   25235.08143460  .00000271  00000+0  86456-4 0  9990
2 24907  86.3908  86.1065 0002171  90.7713 269.3733 14.35994516466378
DUMMY MASS 1            
1 24925U 97048A   25235.23981498  .00000309  00000+0  31399-4 0  9991
2 24925  86.3318 104.3265 0004206 268.6343  91.4400 14.87031829515099
DUMMY MASS 2            
1 24926U 97048B   25235.14583234  .00000315  00000+0  32257-4 0  9999
2 24926  86.3321 105.9907 0005058 286.5568  73.5101 14.86783728514851
IRIDIUM 29              
1 24944U 97051A   25235.21975745  .00000312  00000+0  99665-4 0  9996
2 24944  86.3950 115.7892 0002353  83.6119 276.5346 14.36513146462896
IRIDIUM 33              
1 24946U 97051C   25235.20557957  .00000217  00000+0  69332-4 0  9990
2 24946  86.3862 115.0608 0006565 206.2320 153.8545 14.34926848462358
IRIDIUM 28              
1 24948U 97051E   25235.15090654  .00000253  00000+0  78124-4 0  9991
2 24948  86.3949 113.2946 0001796  97.3578 262.7823 14.37423878463466
IRIDIUM 36              
1 24967U 97056C   25232.80687736  .00000256  00000+0  78565-4 0  9991
2 24967  86.4019 145.8789 0002226  92.2164 267.9288 14.37650517461503
